{
  "type": "FeatureCollection",
  "features": [
    {
      "type": "Feature",
      "geometry": {
        "type": "Point",
        "coordinates": [
          -73.93483408,
          40.79423564
        ]
      },
      "properties": {
        "name": "Family Garden by Tiffany & Co",
        "address": "431 E 114th St, New York, NY 10029",
        "hours": {
          "Sunday": null,
          "Monday": null,
          "Tuesday": null,
          "Wednesday": null,
          "Thursday": null,
          "Friday": null,
          "Saturday": null
        }
      }
    },
    {
      "type": "Feature",
      "geometry": {
        "type": "Point",
        "coordinates": [
          -73.93432809,
          40.79443805
        ]
      },
      "properties": {
        "name": "Rodale Pleasant Park",
        "address": "437 East 114th St/448 East 115th St",
        "hours": {
          "Sunday": null,
          "Monday": null,
          "Tuesday": null,
          "Wednesday": null,
          "Thursday": null,
          "Friday": null,
          "Saturday": null
        }
      }
    },
    {
      "type": "Feature",
      "geometry": {
        "type": "Point",
        "coordinates": [
          -73.93204388,
          40.79608855
        ]
      },
      "properties": {
        "name": "Los Amigos ",
        "address": "326 Pleasant Ave, New York, NY 10035",
        "hours": {
          "Sunday": null,
          "Monday": null,
          "Tuesday": null,
          "Wednesday": null,
          "Thursday": null,
          "Friday": null,
          "Saturday": null
        }
      }
    },
    {
      "type": "Feature",
      "geometry": {
        "type": "Point",
        "coordinates": [
          -73.93170289,
          40.79660828
        ]
      },
      "properties": {
        "name": "Pleasant Village Community Garden",
        "address": "342 Pleasant Avenue (502 E 119th Street)",
        "hours": {
          "Sunday": null,
          "Monday": null,
          "Tuesday": null,
          "Wednesday": null,
          "Thursday": null,
          "Friday": null,
          "Saturday": null
        }
      }
    },
    {
      "type": "Feature",
      "geometry": {
        "type": "Point",
        "coordinates": [
          -73.9336219,
          40.79635381
        ]
      },
      "properties": {
        "name": "East Harlem Community Garden",
        "address": "429 E 117th St, New York, NY 10035",
        "hours": {
          "Sunday": null,
          "Monday": null,
          "Tuesday": null,
          "Wednesday": null,
          "Thursday": null,
          "Friday": null,
          "Saturday": null
        }
      }
    },
    {
      "type": "Feature",
      "geometry": {
        "type": "Point",
        "coordinates": [
          -73.93390223,
          40.79643626
        ]
      },
      "properties": {
        "name": "Home Depot Children's Garden",
        "address": "421 E 117th St, New York, NY 10035",
        "hours": {
          "Sunday": null,
          "Monday": null,
          "Tuesday": null,
          "Wednesday": null,
          "Thursday": null,
          "Friday": null,
          "Saturday": null
        }
      }
    },
    {
      "type": "Feature",
      "geometry": {
        "type": "Point",
        "coordinates": [
          -73.93404793,
          40.7965402
        ]
      },
      "properties": {
        "name": "El Barrio Community Garden",
        "address": "415 E 117th St, New York, NY 10035",
        "hours": {
          "Sunday": null,
          "Monday": null,
          "Tuesday": null,
          "Wednesday": null,
          "Thursday": null,
          "Friday": null,
          "Saturday": null
        }
      }
    },
    {
      "type": "Feature",
      "geometry": {
        "type": "Point",
        "coordinates": [
          -73.93632657,
          40.79794087
        ]
      },
      "properties": {
        "name": "Diamante Garden",
        "address": "308 East 118th Street",
        "hours": {
          "Sunday": null,
          "Monday": null,
          "Tuesday": null,
          "Wednesday": null,
          "Thursday": null,
          "Friday": null,
          "Saturday": null
        }
      }
    },
    {
      "type": "Feature",
      "geometry": {
        "type": "Point",
        "coordinates": [
          -73.94055488,
          40.79891201
        ]
      },
      "properties": {
        "name": "117th Street Community Garden",
        "address": "172 East 117th Street",
        "hours": {
          "Sunday": null,
          "Monday": null,
          "Tuesday": null,
          "Wednesday": null,
          "Thursday": null,
          "Friday": null,
          "Saturday": null
        }
      }
    },
    {
      "type": "Feature",
      "geometry": {
        "type": "Point",
        "coordinates": [
          -73.94057331,
          40.79979195
        ]
      },
      "properties": {
        "name": "Olga's El Gallo Community Garden",
        "address": "1891-1895 Lexington Avenue",
        "hours": {
          "Sunday": null,
          "Monday": null,
          "Tuesday": null,
          "Wednesday": null,
          "Thursday": null,
          "Friday": null,
          "Saturday": null
        }
      }
    },
    {
      "type": "Feature",
      "geometry": {
        "type": "Point",
        "coordinates": [
          -73.94221779,
          40.80011099
        ]
      },
      "properties": {
        "name": "El Gardin Magico Lydia",
        "address": "1665 Park Avenue",
        "hours": {
          "Sunday": null,
          "Monday": null,
          "Tuesday": null,
          "Wednesday": null,
          "Thursday": null,
          "Friday": null,
          "Saturday": null
        }
      }
    },
    {
      "type": "Feature",
      "geometry": {
        "type": "Point",
        "coordinates": [
          -73.93772323,
          40.79929569
        ]
      },
      "properties": {
        "name": "Papo's Community Garden",
        "address": "220 E. 119th Street",
        "hours": {
          "Sunday": null,
          "Monday": null,
          "Tuesday": null,
          "Wednesday": null,
          "Thursday": null,
          "Friday": null,
          "Saturday": null
        }
      }
    },
    {
      "type": "Feature",
      "geometry": {
        "type": "Point",
        "coordinates": [
          -73.93754274,
          40.79962854
        ]
      },
      "properties": {
        "name": "La Casita",
        "address": "223 E. 119th Street",
        "hours": {
          "Sunday": null,
          "Monday": null,
          "Tuesday": null,
          "Wednesday": null,
          "Thursday": null,
          "Friday": null,
          "Saturday": null
        }
      }
    },
    {
      "type": "Feature",
      "geometry": {
        "type": "Point",
        "coordinates": [
          -73.93893353,
          40.80101631
        ]
      },
      "properties": {
        "name": "Harlem Art Park",
        "address": "E 120th St &, Sylvan Pl, New York, NY 10035",
        "hours": {
          "Sunday": null,
          "Monday": null,
          "Tuesday": null,
          "Wednesday": null,
          "Thursday": null,
          "Friday": null,
          "Saturday": null
        }
      }
    },
    {
      "type": "Feature",
      "geometry": {
        "type": "Point",
        "coordinates": [
          -73.93479569,
          40.79427818
        ]
      },
      "properties": {
        "name": "El Barrio Garden of Angels",
        "address": "431 East 114th Street",
        "hours": {
          "Sunday": null,
          "Monday": null,
          "Tuesday": null,
          "Wednesday": null,
          "Thursday": null,
          "Friday": null,
          "Saturday": null
        }
      }
    },
    {
      "type": "Feature",
      "geometry": {
        "type": "Point",
        "coordinates": [
          -73.93997149,
          40.80313007
        ]
      },
      "properties": {
        "name": "Jackie Robinson Community Garden [Destroy]",
        "address": "1761 Park Ave, New York, NY 10035",
        "hours": {
          "Sunday": null,
          "Monday": null,
          "Tuesday": null,
          "Wednesday": null,
          "Thursday": null,
          "Friday": null,
          "Saturday": null
        }
      }
    },
    {
      "type": "Feature",
      "geometry": {
        "type": "Point",
        "coordinates": [
          -73.93847725,
          40.80259997
        ]
      },
      "properties": {
        "name": "Life Spire Garden",
        "address": "2017 Lexington Ave, New York, NY 10035",
        "hours": {
          "Sunday": null,
          "Monday": null,
          "Tuesday": null,
          "Wednesday": null,
          "Thursday": null,
          "Friday": null,
          "Saturday": null
        }
      }
    },
    {
      "type": "Feature",
      "geometry": {
        "type": "Point",
        "coordinates": [
          -73.93476893,
          40.80221856
        ]
      },
      "properties": {
        "name": "Carver Community Garden",
        "address": "242 E 124th St, New York, NY 10035",
        "hours": {
          "Sunday": null,
          "Monday": null,
          "Tuesday": null,
          "Wednesday": null,
          "Thursday": null,
          "Friday": null,
          "Saturday": null
        }
      }
    }
  ]
}